{
    "links": {
        "self": "http://www.neowsapp.com/rest/v1/neo/3388400?api_key=iIulBulltgU6a56xZRHN4H3l9WmuAYTsLGpBGhQ2"
    },
    "id": "3388400",
    "neo_reference_id": "3388400",
    "name": "(2007 TX68)",
    "designation": "2007 TX68",
    "nasa_jpl_url": "http://ssd.jpl.nasa.gov/sbdb.cgi?sstr=3388400",
    "absolute_magnitude_h": 26.8,
    "estimated_diameter": {
        "kilometers": {
            "estimated_diameter_min": 0.0116025908,
            "estimated_diameter_max": 0.0259441818
        },
        "meters": {
            "estimated_diameter_min": 11.6025908209,
            "estimated_diameter_max": 25.9441817907
        },
        "miles": {
            "estimated_diameter_min": 0.0072095135,
            "estimated_diameter_max": 0.0161209622
        },
        "feet": {
            "estimated_diameter_min": 38.066244069,
            "estimated_diameter_max": 85.1187093863
        }
    },
    "is_potentially_hazardous_asteroid": false,
    "close_approach_data": [
        {
            "close_approach_date": "2005-01-23",
            "close_approach_date_full": "2005-Jan-23 20:39",
            "epoch_date_close_approach": 1106512740000,
            "relative_velocity": {
                "kilometers_per_second": "21.711994793",
                "kilometers_per_hour": "78163.1812548688",
                "miles_per_hour": "48567.5611525044"
            },
            "miss_distance": {
                "astronomical": "0.4326805725",
                "lunar": "168.3127427025",
                "kilometers": "64728092.036380575",
                "miles": "40220171.357278935"
            },
            "orbiting_body": "Earth"
        },
        {
            "close_approach_date": "2007-10-19",
            "close_approach_date_full": "2007-Oct-19 17:37",
            "epoch_date_close_approach": 1192815420000,
            "relative_velocity": {
                "kilometers_per_second": "9.531056154",
                "kilometers_per_hour": "34311.8021545381",
                "miles_per_hour": "21320.0195109684"
            },
            "miss_distance": {
                "astronomical": "0.0210690492",
                "lunar": "8.1958601388",
                "kilometers": "3151884.883245204",
                "miles": "1958490.4500396552"
            },
            "orbiting_body": "Earth"
        }
    ],
    "orbital_data": {
        "orbit_id": "7",
        "orbit_determination_date": "2017-04-06 09:05:39",
        "first_observation_date": "2007-10-13",
        "last_observation_date": "2007-10-15",
        "data_arc_in_days": 2,
        "observations_used": 37,
        "orbit_uncertainty": "8",
        "minimum_orbit_intersection": ".0115645",
        "jupiter_tisserand_invariant": "3.618",
        "epoch_osculation": "2454387.5",
        "eccentricity": ".5316421530667322",
        "semi_major_axis": "2.030001775260206",
        "inclination": "4.384314587576493",
        "ascending_node_longitude": "21.6375572550861",
        "orbital_period": "1056.435662517485",
        "perihelion_distance": ".9507672607315814",
        "perihelion_argument": "38.75049185034835",
        "aphelion_distance": "3.10923628978883",
        "perihelion_time": "2454419.902370248903",
        "mean_anomaly": "348.9582927730708",
        "mean_motion": ".3407685037270707",
        "equinox": "J2000",
        "orbit_class": {
            "orbit_class_type": "APO",
            "orbit_class_description": "Near-Earth asteroid orbits which cross the Earth’s orbit similar to that of 1862 Apollo",
            "orbit_class_range": "a (semi-major axis) > 1.0 AU; q (perihelion) < 1.017 AU"
        }
    },
    "is_sentry_object": false
}